{"type": "FeatureCollection", "features": [ {"type": "Feature", "properties": {"norad_id": 42741, "name": "EUTELSAT 172B", "group": "eutelsat", "lat": 0.0007115156176510317, "lon": 176.003869910901, "alt_km": 35786.506215172856, "timestamp": "2025-12-10T18:56:59.733527+00:00", "meta": {"OBJECT_NAME": "EUTELSAT 172B", "OBJECT_ID": "2017-029B", "EPOCH": "2025-12-10T11:35:38.860224", "MEAN_MOTION": 1.00269386, "ECCENTRICITY": 1.21e-05, "INCLINATION": 0.0146, "RA_OF_ASC_NODE": 95.7026, "ARG_OF_PERICENTER": 142.5294, "MEAN_ANOMALY": 187.14, "EPHEMERIS_TYPE": 0, "CLASSIFICATION_TYPE": "U", "NORAD_CAT_ID": 42741, "ELEMENT_SET_NO": 999, "REV_AT_EPOCH": 3183, "BSTAR": 0, "MEAN_MOTION_DOT": -2e-08, "MEAN_MOTION_DDOT": 0}, "tle": {"line1": "1 42741U 17029B   25344.48308866 -.00000002  00000+0  00000+0 0  9999", "line2": "2 42741   0.0146  95.7026 0000121 142.5294 187.1400  1.00269386 31832"}}, "geometry": {"type": "Point", "coordinates": [176.003869910901, 0.0007115156176510317]}}, {"type": "Feature", "properties": {"norad_id": 44334, "name": "EUTELSAT 7C", "group": "eutelsat", "lat": -0.003244215121769214, "lon": 11.015591851732848, "alt_km": 35795.01119488208, "timestamp": "2025-12-10T18:56:59.733539+00:00", "meta": {"OBJECT_NAME": "EUTELSAT 7C", "OBJECT_ID": "2019-034B", "EPOCH": "2025-12-10T00:54:38.687328", "MEAN_MOTION": 1.00271046, "ECCENTRICITY": 0.00033552, "INCLINATION": 0.0729, "RA_OF_ASC_NODE": 178.2937, "ARG_OF_PERICENTER": 64.3773, "MEAN_ANOMALY": 216.9906, "EPHEMERIS_TYPE": 0, "CLASSIFICATION_TYPE": "U", "NORAD_CAT_ID": 44334, "ELEMENT_SET_NO": 999, "REV_AT_EPOCH": 493, "BSTAR": 0, "MEAN_MOTION_DOT": 5.1e-07, "MEAN_MOTION_DDOT": 0}, "tle": {"line1": "1 44334U 19034B   25344.03794777  .00000051  00000+0  00000+0 0  9991", "line2": "2 44334   0.0729 178.2937 0003355  64.3773 216.9906  1.00271046  4931"}}, "geometry": {"type": "Point", "coordinates": [11.015591851732848, -0.003244215121769214]}}, {"type": "Feature", "properties": {"norad_id": 44624, "name": "EUTELSAT 5 WEST B", "group": "eutelsat", "lat": 0.022485265750666863, "lon": -0.9563852874702375, "alt_km": 35788.4881700591, "timestamp": "2025-12-10T18:56:59.733551+00:00", "meta": {"OBJECT_NAME": "EUTELSAT 5 WEST B", "OBJECT_ID": "2019-067A", "EPOCH": "2025-12-10T06:29:38.861088", "MEAN_MOTION": 1.00271337, "ECCENTRICITY": 0.0003466, "INCLINATION": 0.0636, "RA_OF_ASC_NODE": 343.945, "ARG_OF_PERICENTER": 276.083, "MEAN_ANOMALY": 271.632, "EPHEMERIS_TYPE": 0, "CLASSIFICATION_TYPE": "U", "NORAD_CAT_ID": 44624, "ELEMENT_SET_NO": 999, "REV_AT_EPOCH": 2254, "BSTAR": 0, "MEAN_MOTION_DOT": -3.9e-07, "MEAN_MOTION_DDOT": 0}, "tle": {"line1": "1 44624U 19067A   25344.27058867 -.00000039  00000+0  00000+0 0  9995", "line2": "2 44624   0.0636 343.9450 0003466 276.0830 271.6320  1.00271337 22548"}}, "geometry": {"type": "Point", "coordinates": [-0.9563852874702375, 0.022485265750666863]}}, {"type": "Feature", "properties": {"norad_id": 45027, "name": "EUTELSAT KONNECT", "group": "eutelsat", "lat": -0.060636645785107864, "lon": 11.204042987392949, "alt_km": 35786.154774066184, "timestamp": "2025-12-10T18:56:59.733563+00:00", "meta": {"OBJECT_NAME": "EUTELSAT KONNECT", "OBJECT_ID": "2020-005B", "EPOCH": "2025-12-10T00:54:38.687328", "MEAN_MOTION": 1.00268676, "ECCENTRICITY": 0.00017287, "INCLINATION": 0.0718, "RA_OF_ASC_NODE": 96.1497, "ARG_OF_PERICENTER": 191.1313, "MEAN_ANOMALY": 172.586, "EPHEMERIS_TYPE": 0, "CLASSIFICATION_TYPE": "U", "NORAD_CAT_ID": 45027, "ELEMENT_SET_NO": 999, "REV_AT_EPOCH": 2244, "BSTAR": 0, "MEAN_MOTION_DOT": 5.2e-07, "MEAN_MOTION_DDOT": 0}, "tle": {"line1": "1 45027U 20005B   25344.03794777  .00000052  00000+0  00000+0 0  9992", "line2": "2 45027   0.0718  96.1497 0001728 191.1313 172.5860  1.00268676 22446"}}, "geometry": {"type": "Point", "coordinates": [11.204042987392949, -0.060636645785107864]}}, {"type": "Feature", "properties": {"norad_id": 49056, "name": "EUTELSAT QUANTUM", "group": "eutelsat", "lat": 0.022929817903476885, "lon": 51.73040553869726, "alt_km": 35798.1688565, "timestamp": "2025-12-10T18:56:59.733575+00:00", "meta": {"OBJECT_NAME": "EUTELSAT QUANTUM", "OBJECT_ID": "2021-069B", "EPOCH": "2025-12-10T04:24:38.914272", "MEAN_MOTION": 1.00271276, "ECCENTRICITY": 0.0003726, "INCLINATION": 0.0161, "RA_OF_ASC_NODE": 19.5087, "ARG_OF_PERICENTER": 252.6452, "MEAN_ANOMALY": 280.869, "EPHEMERIS_TYPE": 0, "CLASSIFICATION_TYPE": "U", "NORAD_CAT_ID": 49056, "ELEMENT_SET_NO": 999, "REV_AT_EPOCH": 1603, "BSTAR": 0, "MEAN_MOTION_DOT": 1.29e-06, "MEAN_MOTION_DDOT": 0}, "tle": {"line1": "1 49056U 21069B   25344.18378373  .00000129  00000+0  00000+0 0  9990", "line2": "2 49056   0.0161  19.5087 0003726 252.6452 280.8690  1.00271276 16037"}}, "geometry": {"type": "Point", "coordinates": [51.73040553869726, 0.022929817903476885]}}, {"type": "Feature", "properties": {"norad_id": 53765, "name": "EUTELSAT KONNECT VHTS", "group": "eutelsat", "lat": -0.0548585278864615, "lon": 6.733469694937382, "alt_km": 35793.00392169029, "timestamp": "2025-12-10T18:56:59.733587+00:00", "meta": {"OBJECT_NAME": "EUTELSAT KONNECT VHTS", "OBJECT_ID": "2022-110A", "EPOCH": "2025-12-10T06:29:38.861088", "MEAN_MOTION": 1.00271134, "ECCENTRICITY": 0.0002566, "INCLINATION": 0.0653, "RA_OF_ASC_NODE": 101.0949, "ARG_OF_PERICENTER": 136.9321, "MEAN_ANOMALY": 301.3392, "EPHEMERIS_TYPE": 0, "CLASSIFICATION_TYPE": "U", "NORAD_CAT_ID": 53765, "ELEMENT_SET_NO": 999, "REV_AT_EPOCH": 493, "BSTAR": 0, "MEAN_MOTION_DOT": 2.1e-07, "MEAN_MOTION_DDOT": 0}, "tle": {"line1": "1 53765U 22110A   25344.27058867  .00000021  00000+0  00000+0 0  9994", "line2": "2 53765   0.0653 101.0949 0002566 136.9321 301.3392  1.00271134  4936"}}, "geometry": {"type": "Point", "coordinates": [6.733469694937382, -0.0548585278864615]}}, {"type": "Feature", "properties": {"norad_id": 54048, "name": "EUTELSAT HOTBIRD 13F", "group": "eutelsat", "lat": 0.06002201414672034, "lon": 17.028993392721794, "alt_km": 35778.68088448169, "timestamp": "2025-12-10T18:56:59.733603+00:00", "meta": {"OBJECT_NAME": "EUTELSAT HOTBIRD 13F", "OBJECT_ID": "2022-134A", "EPOCH": "2025-12-10T06:13:38.752320", "MEAN_MOTION": 1.0027045, "ECCENTRICITY": 0.0001975, "INCLINATION": 0.0508, "RA_OF_ASC_NODE": 290.7601, "ARG_OF_PERICENTER": 64.7163, "MEAN_ANOMALY": 190.1902, "EPHEMERIS_TYPE": 0, "CLASSIFICATION_TYPE": "U", "NORAD_CAT_ID": 54048, "ELEMENT_SET_NO": 999, "REV_AT_EPOCH": 1148, "BSTAR": 0, "MEAN_MOTION_DOT": 9e-07, "MEAN_MOTION_DDOT": 0}, "tle": {"line1": "1 54048U 22134A   25344.25947630  .00000090  00000+0  00000+0 0  9994", "line2": "2 54048   0.0508 290.7601 0001975  64.7163 190.1902  1.00270450 11485"}}, "geometry": {"type": "Point", "coordinates": [17.028993392721794, 0.06002201414672034]}}, {"type": "Feature", "properties": {"norad_id": 54225, "name": "EUTELSAT HOTBIRD 13G", "group": "eutelsat", "lat": 0.04194967464415424, "lon": 16.985415292674258, "alt_km": 35794.675739463375, "timestamp": "2025-12-10T18:56:59.733615+00:00", "meta": {"OBJECT_NAME": "EUTELSAT HOTBIRD 13G", "OBJECT_ID": "2022-146A", "EPOCH": "2025-12-10T06:13:38.752320", "MEAN_MOTION": 1.00268356, "ECCENTRICITY": 0.0001886, "INCLINATION": 0.0515, "RA_OF_ASC_NODE": 237.9533, "ARG_OF_PERICENTER": 304.8699, "MEAN_ANOMALY": 2.8172, "EPHEMERIS_TYPE": 0, "CLASSIFICATION_TYPE": "U", "NORAD_CAT_ID": 54225, "ELEMENT_SET_NO": 999, "REV_AT_EPOCH": 557, "BSTAR": 0, "MEAN_MOTION_DOT": 9e-07, "MEAN_MOTION_DDOT": 0}, "tle": {"line1": "1 54225U 22146A   25344.25947630  .00000090  00000+0  00000+0 0  9994", "line2": "2 54225   0.0515 237.9533 0001886 304.8699   2.8172  1.00268356  5573"}}, "geometry": {"type": "Point", "coordinates": [16.985415292674258, 0.04194967464415424]}}, {"type": "Feature", "properties": {"norad_id": 54259, "name": "EUTELSAT 10B", "group": "eutelsat", "lat": -0.047902971573708424, "lon": 13.971946128519074, "alt_km": 35789.71164571968, "timestamp": "2025-12-10T18:56:59.733627+00:00", "meta": {"OBJECT_NAME": "EUTELSAT 10B", "OBJECT_ID": "2022-157A", "EPOCH": "2025-12-10T06:21:38.694816", "MEAN_MOTION": 1.00269412, "ECCENTRICITY": 7.85e-05, "INCLINATION": 0.0611, "RA_OF_ASC_NODE": 99.1185, "ARG_OF_PERICENTER": 70.4001, "MEAN_ANOMALY": 15.1099, "EPHEMERIS_TYPE": 0, "CLASSIFICATION_TYPE": "U", "NORAD_CAT_ID": 54259, "ELEMENT_SET_NO": 999, "REV_AT_EPOCH": 1113, "BSTAR": 0, "MEAN_MOTION_DOT": 7.1e-07, "MEAN_MOTION_DDOT": 0}, "tle": {"line1": "1 54259U 22157A   25344.26503119  .00000071  00000+0  00000+0 0  9993", "line2": "2 54259   0.0611  99.1185 0000785  70.4001  15.1099  1.00269412 11136"}}, "geometry": {"type": "Point", "coordinates": [13.971946128519074, -0.047902971573708424]}}, {"type": "Feature", "properties": {"norad_id": 59346, "name": "EUTELSAT 36D", "group": "eutelsat", "lat": 0.028175018984699665, "lon": 39.85561524874734, "alt_km": 35785.89210579145, "timestamp": "2025-12-10T18:56:59.733653+00:00", "meta": {"OBJECT_NAME": "EUTELSAT 36D", "OBJECT_ID": "2024-059A", "EPOCH": "2025-12-10T04:48:38.703744", "MEAN_MOTION": 1.00268969, "ECCENTRICITY": 4.97e-05, "INCLINATION": 0.0175, "RA_OF_ASC_NODE": 352.6536, "ARG_OF_PERICENTER": 342.7613, "MEAN_ANOMALY": 211.7763, "EPHEMERIS_TYPE": 0, "CLASSIFICATION_TYPE": "U", "NORAD_CAT_ID": 59346, "ELEMENT_SET_NO": 999, "REV_AT_EPOCH": 625, "BSTAR": 0, "MEAN_MOTION_DOT": 0, "MEAN_MOTION_DDOT": 0}, "tle": {"line1": "1 59346U 24059A   25344.20044796  .00000000  00000+0  00000+0 0  9995", "line2": "2 59346   0.0175 352.6536 0000497 342.7613 211.7763  1.00268969  6259"}}, "geometry": {"type": "Point", "coordinates": [39.85561524874734, 0.028175018984699665]}}]}